[{"OBJECT_NAME":"STARLINK-2692","OBJECT_ID":"2021-040G","EPOCH":"2026-03-09T12:20:05.153856","MEAN_MOTION":15.30199162,"ECCENTRICITY":0.00014901,"INCLINATION":53.1618,"RA_OF_ASC_NODE":153.5066,"ARG_OF_PERICENTER":105.4069,"MEAN_ANOMALY":254.7097,"EPHEMERIS_TYPE":0,"CLASSIFICATION_TYPE":"U","NORAD_CAT_ID":48434,"ELEMENT_SET_NO":999,"REV_AT_EPOCH":26701,"BSTAR":3.421468e-6,"MEAN_MOTION_DOT":-2.58e-6,"MEAN_MOTION_DDOT":0},{"OBJECT_NAME":"SCS-01 H","OBJECT_ID":"2025-100H","EPOCH":"2026-03-09T23:19:05.376864","MEAN_MOTION":15.31767757,"ECCENTRICITY":0.00071581,"INCLINATION":97.3749,"RA_OF_ASC_NODE":145.8085,"ARG_OF_PERICENTER":277.8492,"MEAN_ANOMALY":82.1937,"EPHEMERIS_TYPE":0,"CLASSIFICATION_TYPE":"U","NORAD_CAT_ID":63989,"ELEMENT_SET_NO":999,"REV_AT_EPOCH":4566,"BSTAR":0.0011436254,"MEAN_MOTION_DOT":0.00035149,"MEAN_MOTION_DDOT":0}]
